{
  "type": "FeatureCollection",
  "features": [
    {
      "type": "Feature",
      "properties": {
        "norad_id": 66638,
        "name": "STARLINK-35972",
        "group": "last-30-days",
        "lat": 39.77320776428463,
        "lon": -154.5314873175575,
        "alt_km": 413.04800211781003,
        "timestamp": "2025-12-16T23:36:34.923665+00:00",
        "meta_object_name": "STARLINK-35972",
        "meta_object_id": "2025-271X",
        "meta_epoch": "2025-12-16T06:00:02.999808",
        "meta_mean_motion": 15.49279737,
        "meta_eccentricity": 7.093e-05,
        "meta_inclination": 53.1589,
        "meta_ra_of_asc_node": 170.3634,
        "meta_arg_of_pericenter": 74.5614,
        "meta_mean_anomaly": 204.038,
        "meta_ephemeris_type": 0,
        "meta_classification_type": "U",
        "meta_norad_cat_id": 66638,
        "meta_element_set_no": 999,
        "meta_rev_at_epoch": 480,
        "meta_bstar": 0.00059587624,
        "meta_mean_motion_dot": 0.00032797,
        "meta_mean_motion_ddot": 0,
        "tle_line1": "1 66638U 25271X   25350.25003472  .00032797  00000+0  59588-3 0  9999",
        "tle_line2": "2 66638  53.1589 170.3634 0000709  74.5614 204.0380 15.49279737  4802"
      },
      "geometry": {
        "type": "Point",
        "coordinates": [
          -154.5314873175575,
          39.77320776428463
        ]
      }
    },
    {
      "type": "Feature",
      "properties": {
        "norad_id": 66639,
        "name": "STARLINK-35908",
        "group": "last-30-days",
        "lat": 40.956317599096984,
        "lon": -152.55221222714508,
        "alt_km": 412.8278691774194,
        "timestamp": "2025-12-16T23:36:34.923685+00:00",
        "meta_object_name": "STARLINK-35908",
        "meta_object_id": "2025-271Y",
        "meta_epoch": "2025-12-16T06:00:02.999808",
        "meta_mean_motion": 15.49276603,
        "meta_eccentricity": 8.837e-05,
        "meta_inclination": 53.1588,
        "meta_ra_of_asc_node": 170.359,
        "meta_arg_of_pericenter": 91.1336,
        "meta_mean_anomaly": 189.3867,
        "meta_ephemeris_type": 0,
        "meta_classification_type": "U",
        "meta_norad_cat_id": 66639,
        "meta_element_set_no": 999,
        "meta_rev_at_epoch": 480,
        "meta_bstar": 0.00066141816,
        "meta_mean_motion_dot": 0.00036467,
        "meta_mean_motion_ddot": 0,
        "tle_line1": "1 66639U 25271Y   25350.25003472  .00036467  00000+0  66142-3 0  9992",
        "tle_line2": "2 66639  53.1588 170.3590 0000883  91.1336 189.3867 15.49276603  4806"
      },
      "geometry": {
        "type": "Point",
        "coordinates": [
          -152.55221222714508,
          40.956317599096984
        ]
      }
    },
    {
      "type": "Feature",
      "properties": {
        "norad_id": 66640,
        "name": "STARLINK-35921",
        "group": "last-30-days",
        "lat": 42.103232102840245,
        "lon": -150.50289849377862,
        "alt_km": 412.5001397600581,
        "timestamp": "2025-12-16T23:36:34.923703+00:00",
        "meta_object_name": "STARLINK-35921",
        "meta_object_id": "2025-271Z",
        "meta_epoch": "2025-12-16T06:00:02.999808",
        "meta_mean_motion": 15.49281644,
        "meta_eccentricity": 0.00011305,
        "meta_inclination": 53.1589,
        "meta_ra_of_asc_node": 170.3555,
        "meta_arg_of_pericenter": 89.0176,
        "meta_mean_anomaly": 193.4165,
        "meta_ephemeris_type": 0,
        "meta_classification_type": "U",
        "meta_norad_cat_id": 66640,
        "meta_element_set_no": 999,
        "meta_rev_at_epoch": 480,
        "meta_bstar": 0.000556944,
        "meta_mean_motion_dot": 0.00030618,
        "meta_mean_motion_ddot": 0,
        "tle_line1": "1 66640U 25271Z   25350.25003472  .00030618  00000+0  55694-3 0  9996",
        "tle_line2": "2 66640  53.1589 170.3555 0001130  89.0176 193.4165 15.49281644  4802"
      },
      "geometry": {
        "type": "Point",
        "coordinates": [
          -150.50289849377862,
          42.103232102840245
        ]
      }
    },
    {
      "type": "Feature",
      "properties": {
        "norad_id": 66641,
        "name": "STARLINK-35923",
        "group": "last-30-days",
        "lat": 46.28423319637224,
        "lon": -141.53000537417142,
        "alt_km": 411.88064482697973,
        "timestamp": "2025-12-16T23:36:34.923721+00:00",
        "meta_object_name": "STARLINK-35923",
        "meta_object_id": "2025-271AA",
        "meta_epoch": "2025-12-16T06:00:02.999808",
        "meta_mean_motion": 15.49277562,
        "meta_eccentricity": 0.00011265,
        "meta_inclination": 53.159,
        "meta_ra_of_asc_node": 170.3385,
        "meta_arg_of_pericenter": 96.3755,
        "meta_mean_anomaly": 193.7316,
        "meta_ephemeris_type": 0,
        "meta_classification_type": "U",
        "meta_norad_cat_id": 66641,
        "meta_element_set_no": 999,
        "meta_rev_at_epoch": 480,
        "meta_bstar": 0.00057698593,
        "meta_mean_motion_dot": 0.00031736,
        "meta_mean_motion_ddot": 0,
        "tle_line1": "1 66641U 25271AA  25350.25003472  .00031736  00000+0  57699-3 0  9996",
        "tle_line2": "2 66641  53.1590 170.3385 0001126  96.3755 193.7316 15.49277562  4800"
      },
      "geometry": {
        "type": "Point",
        "coordinates": [
          -141.53000537417142,
          46.28423319637224
        ]
      }
    },
    {
      "type": "Feature",
      "properties": {
        "norad_id": 66642,
        "name": "STARLINK-35926",
        "group": "last-30-days",
        "lat": 45.30884623106219,
        "lon": -143.88835578920737,
        "alt_km": 412.18430783070653,
        "timestamp": "2025-12-16T23:36:34.923738+00:00",
        "meta_object_name": "STARLINK-35926",
        "meta_object_id": "2025-271AB",
        "meta_epoch": "2025-12-16T06:00:02.999808",
        "meta_mean_motion": 15.49276312,
        "meta_eccentricity": 7.588e-05,
        "meta_inclination": 53.1589,
        "meta_ra_of_asc_node": 170.3434,
        "meta_arg_of_pericenter": 82.985,
        "meta_mean_anomaly": 205.2094,
        "meta_ephemeris_type": 0,
        "meta_classification_type": "U",
        "meta_norad_cat_id": 66642,
        "meta_element_set_no": 999,
        "meta_rev_at_epoch": 457,
        "meta_bstar": 0.00057946846,
        "meta_mean_motion_dot": 0.00031874,
        "meta_mean_motion_ddot": 0,
        "tle_line1": "1 66642U 25271AB  25350.25003472  .00031874  00000+0  57947-3 0  9996",
        "tle_line2": "2 66642  53.1589 170.3434 0000758  82.9850 205.2094 15.49276312  4579"
      },
      "geometry": {
        "type": "Point",
        "coordinates": [
          -143.88835578920737,
          45.30884623106219
        ]
      }
    },
    {
      "type": "Feature",
      "properties": {
        "norad_id": 66643,
        "name": "STARLINK-35918",
        "group": "last-30-days",
        "lat": 43.21303215787,
        "lon": -148.3777310309865,
        "alt_km": 412.2998029210503,
        "timestamp": "2025-12-16T23:36:34.923755+00:00",
        "meta_object_name": "STARLINK-35918",
        "meta_object_id": "2025-271AC",
        "meta_epoch": "2025-12-16T06:00:02.999808",
        "meta_mean_motion": 15.49280518,
        "meta_eccentricity": 0.00011274,
        "meta_inclination": 53.1589,
        "meta_ra_of_asc_node": 170.3517,
        "meta_arg_of_pericenter": 86.0032,
        "meta_mean_anomaly": 198.3485,
        "meta_ephemeris_type": 0,
        "meta_classification_type": "U",
        "meta_norad_cat_id": 66643,
        "meta_element_set_no": 999,
        "meta_rev_at_epoch": 480,
        "meta_bstar": 0.00056318683,
        "meta_mean_motion_dot": 0.00030967,
        "meta_mean_motion_ddot": 0,
        "tle_line1": "1 66643U 25271AC  25350.25003472  .00030967  00000+0  56319-3 0  9991",
        "tle_line2": "2 66643  53.1589 170.3517 0001127  86.0032 198.3485 15.49280518  4805"
      },
      "geometry": {
        "type": "Point",
        "coordinates": [
          -148.3777310309865,
          43.21303215787
        ]
      }
    },
    {
      "type": "Feature",
      "properties": {
        "norad_id": 66644,
        "name": "STARLINK-35938",
        "group": "last-30-days",
        "lat": 44.28172822559647,
        "lon": -146.17540228347957,
        "alt_km": 412.4778348505188,
        "timestamp": "2025-12-16T23:36:34.923773+00:00",
        "meta_object_name": "STARLINK-35938",
        "meta_object_id": "2025-271AD",
        "meta_epoch": "2025-12-16T06:00:02.999808",
        "meta_mean_motion": 15.49281455,
        "meta_eccentricity": 5.876e-05,
        "meta_inclination": 53.1587,
        "meta_ra_of_asc_node": 170.3476,
        "meta_arg_of_pericenter": 93.4783,
        "meta_mean_anomaly": 192.7861,
        "meta_ephemeris_type": 0,
        "meta_classification_type": "U",
        "meta_norad_cat_id": 66644,
        "meta_element_set_no": 999,
        "meta_rev_at_epoch": 480,
        "meta_bstar": 0.00054834594,
        "meta_mean_motion_dot": 0.00030137,
        "meta_mean_motion_ddot": 0,
        "tle_line1": "1 66644U 25271AD  25350.25003472  .00030137  00000+0  54835-3 0  9992",
        "tle_line2": "2 66644  53.1587 170.3476 0000587  93.4783 192.7861 15.49281455  4809"
      },
      "geometry": {
        "type": "Point",
        "coordinates": [
          -146.17540228347957,
          44.28172822559647
        ]
      }
    }
  ]
}